[{"OBJECT_NAME":"STARLINK-3970","OBJECT_ID":"2022-053BC","EPOCH":"2025-11-22T05:46:30.584928","MEAN_MOTION":15.08837802,"ECCENTRICITY":0.0001363,"INCLINATION":53.2175,"RA_OF_ASC_NODE":256.4763,"ARG_OF_PERICENTER":93.4493,"MEAN_ANOMALY":266.6655,"EPHEMERIS_TYPE":0,"CLASSIFICATION_TYPE":"U","NORAD_CAT_ID":52706,"ELEMENT_SET_NO":999,"REV_AT_EPOCH":19509,"BSTAR":5.9088e-5,"MEAN_MOTION_DOT":6.53e-6,"MEAN_MOTION_DDOT":0},{"OBJECT_NAME":"STARLINK-4007","OBJECT_ID":"2022-053BD","EPOCH":"2025-11-22T02:03:55.800000","MEAN_MOTION":15.08854402,"ECCENTRICITY":0.0001449,"INCLINATION":53.2173,"RA_OF_ASC_NODE":257.0554,"ARG_OF_PERICENTER":94.7962,"MEAN_ANOMALY":265.3195,"EPHEMERIS_TYPE":0,"CLASSIFICATION_TYPE":"U","NORAD_CAT_ID":52707,"ELEMENT_SET_NO":999,"REV_AT_EPOCH":19513,"BSTAR":0.00069311,"MEAN_MOTION_DOT":0.00010764,"MEAN_MOTION_DDOT":0},{"OBJECT_NAME":"STARLINK-3962","OBJECT_ID":"2022-053BE","EPOCH":"2025-11-22T03:07:30.582048","MEAN_MOTION":15.08874163,"ECCENTRICITY":0.0001422,"INCLINATION":53.2166,"RA_OF_ASC_NODE":256.9664,"ARG_OF_PERICENTER":92.7015,"MEAN_ANOMALY":267.414,"EPHEMERIS_TYPE":0,"CLASSIFICATION_TYPE":"U","NORAD_CAT_ID":52708,"ELEMENT_SET_NO":999,"REV_AT_EPOCH":19528,"BSTAR":0.00087416,"MEAN_MOTION_DOT":0.00013665,"MEAN_MOTION_DDOT":0},{"OBJECT_NAME":"STARLINK-4091","OBJECT_ID":"2022-062A","EPOCH":"2025-11-21T22:39:56.832192","MEAN_MOTION":15.08843397,"ECCENTRICITY":0.0001408,"INCLINATION":53.216,"RA_OF_ASC_NODE":157.9997,"ARG_OF_PERICENTER":95.3362,"MEAN_ANOMALY":264.779,"EPHEMERIS_TYPE":0,"CLASSIFICATION_TYPE":"U","NORAD_CAT_ID":52830,"ELEMENT_SET_NO":999,"REV_AT_EPOCH":18951,"BSTAR":2.4374e-5,"MEAN_MOTION_DOT":1.0e-6,"MEAN_MOTION_DDOT":0},{"OBJECT_NAME":"STARLINK-4089","OBJECT_ID":"2022-062B","EPOCH":"2025-11-21T22:29:22.783200","MEAN_MOTION":15.0868253,"ECCENTRICITY":0.000186,"INCLINATION":53.2158,"RA_OF_ASC_NODE":157.8407,"ARG_OF_PERICENTER":133.1556,"MEAN_ANOMALY":226.9592,"EPHEMERIS_TYPE":0,"CLASSIFICATION_TYPE":"U","NORAD_CAT_ID":52831,"ELEMENT_SET_NO":999,"REV_AT_EPOCH":18951,"BSTAR":0.0024666,"MEAN_MOTION_DOT":0.00039017,"MEAN_MOTION_DDOT":0},{"OBJECT_NAME":"STARLINK-4083","OBJECT_ID":"2022-062C","EPOCH":"2025-11-21T22:24:02.824128","MEAN_MOTION":15.08831226,"ECCENTRICITY":0.0001693,"INCLINATION":53.2166,"RA_OF_ASC_NODE":157.8603,"ARG_OF_PERICENTER":77.6167,"MEAN_ANOMALY":282.5014,"EPHEMERIS_TYPE":0,"CLASSIFICATION_TYPE":"U","NORAD_CAT_ID":52832,"ELEMENT_SET_NO":999,"REV_AT_EPOCH":18951,"BSTAR":-5.0408e-5,"MEAN_MOTION_DOT":-1.09e-5,"MEAN_MOTION_DDOT":0},{"OBJECT_NAME":"STARLINK-4086","OBJECT_ID":"2022-062D","EPOCH":"2025-11-21T20:43:19.740288","MEAN_MOTION":15.08841004,"ECCENTRICITY":0.0001594,"INCLINATION":53.2168,"RA_OF_ASC_NODE":158.1725,"ARG_OF_PERICENTER":87.4168,"MEAN_ANOMALY":272.7006,"EPHEMERIS_TYPE":0,"CLASSIFICATION_TYPE":"U","NORAD_CAT_ID":52833,"ELEMENT_SET_NO":999,"REV_AT_EPOCH":18950,"BSTAR":4.6451e-5,"MEAN_MOTION_DOT":4.51e-6,"MEAN_MOTION_DDOT":0},{"OBJECT_NAME":"STARLINK-4108","OBJECT_ID":"2022-062E","EPOCH":"2025-11-21T22:08:07.735200","MEAN_MOTION":15.08838574,"ECCENTRICITY":0.0001318,"INCLINATION":53.2153,"RA_OF_ASC_NODE":157.9071,"ARG_OF_PERICENTER":92.0038,"MEAN_ANOMALY":268.1105,"EPHEMERIS_TYPE":0,"CLASSIFICATION_TYPE":"U","NORAD_CAT_ID":52834,"ELEMENT_SET_NO":999,"REV_AT_EPOCH":18951,"BSTAR":7.2485e-5,"MEAN_MOTION_DOT":8.66e-6,"MEAN_MOTION_DDOT":0},{"OBJECT_NAME":"STARLINK-4080","OBJECT_ID":"2022-062F","EPOCH":"2025-11-21T22:02:51.329760","MEAN_MOTION":15.08829997,"ECCENTRICITY":0.0001592,"INCLINATION":53.2154,"RA_OF_ASC_NODE":157.9249,"ARG_OF_PERICENTER":83.4347,"MEAN_ANOMALY":276.6826,"EPHEMERIS_TYPE":0,"CLASSIFICATION_TYPE":"U","NORAD_CAT_ID":52835,"ELEMENT_SET_NO":999,"REV_AT_EPOCH":18951,"BSTAR":0.00011871,"MEAN_MOTION_DOT":1.601e-5,"MEAN_MOTION_DDOT":0},{"OBJECT_NAME":"STARLINK-4043","OBJECT_ID":"2022-062G","EPOCH":"2025-11-21T22:41:20.559840","MEAN_MOTION":15.08849169,"ECCENTRICITY":0.0001366,"INCLINATION":53.2145,"RA_OF_ASC_NODE":158.1204,"ARG_OF_PERICENTER":104.4518,"MEAN_ANOMALY":255.6626,"EPHEMERIS_TYPE":0,"CLASSIFICATION_TYPE":"U","NORAD_CAT_ID":52836,"ELEMENT_SET_NO":999,"REV_AT_EPOCH":18951,"BSTAR":0.00017505,"MEAN_MOTION_DOT":2.5e-5,"MEAN_MOTION_DDOT":0},{"OBJECT_NAME":"STARLINK-4036","OBJECT_ID":"2022-062H","EPOCH":"2025-11-21T21:46:55.586784","MEAN_MOTION":15.08839871,"ECCENTRICITY":0.0001375,"INCLINATION":53.2159,"RA_OF_ASC_NODE":157.9744,"ARG_OF_PERICENTER":85.9284,"MEAN_ANOMALY":274.1865,"EPHEMERIS_TYPE":0,"CLASSIFICATION_TYPE":"U","NORAD_CAT_ID":52837,"ELEMENT_SET_NO":999,"REV_AT_EPOCH":18951,"BSTAR":5.3767e-5,"MEAN_MOTION_DOT":5.68e-6,"MEAN_MOTION_DDOT":0},{"OBJECT_NAME":"STARLINK-4092","OBJECT_ID":"2022-062J","EPOCH":"2025-11-21T23:27:36.692064","MEAN_MOTION":15.08839073,"ECCENTRICITY":0.0001402,"INCLINATION":53.2149,"RA_OF_ASC_NODE":157.6484,"ARG_OF_PERICENTER":87.5295,"MEAN_ANOMALY":272.5858,"EPHEMERIS_TYPE":0,"CLASSIFICATION_TYPE":"U","NORAD_CAT_ID":52838,"ELEMENT_SET_NO":999,"REV_AT_EPOCH":18952,"BSTAR":7.1556e-5,"MEAN_MOTION_DOT":8.51e-6,"MEAN_MOTION_DDOT":0},{"OBJECT_NAME":"STARLINK-4048","OBJECT_ID":"2022-062K","EPOCH":"2025-11-21T23:11:43.279296","MEAN_MOTION":15.08834876,"ECCENTRICITY":0.0001525,"INCLINATION":53.2157,"RA_OF_ASC_NODE":157.7084,"ARG_OF_PERICENTER":96.7664,"MEAN_ANOMALY":263.3502,"EPHEMERIS_TYPE":0,"CLASSIFICATION_TYPE":"U","NORAD_CAT_ID":52839,"ELEMENT_SET_NO":999,"REV_AT_EPOCH":18952,"BSTAR":1.4452e-5,"MEAN_MOTION_DOT":-5.8e-7,"MEAN_MOTION_DDOT":0},{"OBJECT_NAME":"STARLINK-4049","OBJECT_ID":"2022-062L","EPOCH":"2025-11-21T21:57:32.962176","MEAN_MOTION":15.08839842,"ECCENTRICITY":0.0001298,"INCLINATION":53.2155,"RA_OF_ASC_NODE":158.0566,"ARG_OF_PERICENTER":89.7059,"MEAN_ANOMALY":270.4082,"EPHEMERIS_TYPE":0,"CLASSIFICATION_TYPE":"U","NORAD_CAT_ID":52840,"ELEMENT_SET_NO":999,"REV_AT_EPOCH":18951,"BSTAR":4.1459e-5,"MEAN_MOTION_DOT":3.72e-6,"MEAN_MOTION_DDOT":0},{"OBJECT_NAME":"STARLINK-4065","OBJECT_ID":"2022-062M","EPOCH":"2025-11-21T22:55:48.962784","MEAN_MOTION":15.0884083,"ECCENTRICITY":0.0001645,"INCLINATION":53.2146,"RA_OF_ASC_NODE":157.7578,"ARG_OF_PERICENTER":99.1203,"MEAN_ANOMALY":260.9975,"EPHEMERIS_TYPE":0,"CLASSIFICATION_TYPE":"U","NORAD_CAT_ID":52841,"ELEMENT_SET_NO":999,"REV_AT_EPOCH":18952,"BSTAR":1.072e-5,"MEAN_MOTION_DOT":-1.17e-6,"MEAN_MOTION_DDOT":0},{"OBJECT_NAME":"STARLINK-4046","OBJECT_ID":"2022-062N","EPOCH":"2025-11-21T21:41:37.144032","MEAN_MOTION":15.08836465,"ECCENTRICITY":0.000166,"INCLINATION":53.216,"RA_OF_ASC_NODE":157.9131,"ARG_OF_PERICENTER":91.5217,"MEAN_ANOMALY":268.5965,"EPHEMERIS_TYPE":0,"CLASSIFICATION_TYPE":"U","NORAD_CAT_ID":52842,"ELEMENT_SET_NO":999,"REV_AT_EPOCH":18951,"BSTAR":4.148e-5,"MEAN_MOTION_DOT":3.72e-6,"MEAN_MOTION_DDOT":0},{"OBJECT_NAME":"STARLINK-4188","OBJECT_ID":"2022-062P","EPOCH":"2025-11-21T22:45:14.981184","MEAN_MOTION":15.08824019,"ECCENTRICITY":0.0001306,"INCLINATION":53.2162,"RA_OF_ASC_NODE":157.7905,"ARG_OF_PERICENTER":99.7007,"MEAN_ANOMALY":260.4133,"EPHEMERIS_TYPE":0,"CLASSIFICATION_TYPE":"U","NORAD_CAT_ID":52843,"ELEMENT_SET_NO":999,"REV_AT_EPOCH":18952,"BSTAR":-0.00014026,"MEAN_MOTION_DOT":-2.518e-5,"MEAN_MOTION_DDOT":0},{"OBJECT_NAME":"STARLINK-4208","OBJECT_ID":"2022-062Q","EPOCH":"2025-11-21T19:55:38.618112","MEAN_MOTION":15.08839215,"ECCENTRICITY":0.0001184,"INCLINATION":53.2166,"RA_OF_ASC_NODE":158.3201,"ARG_OF_PERICENTER":127.5792,"MEAN_ANOMALY":232.5308,"EPHEMERIS_TYPE":0,"CLASSIFICATION_TYPE":"U","NORAD_CAT_ID":52844,"ELEMENT_SET_NO":999,"REV_AT_EPOCH":18950,"BSTAR":1.261e-5,"MEAN_MOTION_DOT":-8.7e-7,"MEAN_MOTION_DDOT":0},{"OBJECT_NAME":"STARLINK-4168","OBJECT_ID":"2022-062R","EPOCH":"2025-11-21T19:39:45.450720","MEAN_MOTION":15.08848121,"ECCENTRICITY":0.0001532,"INCLINATION":53.2164,"RA_OF_ASC_NODE":158.4376,"ARG_OF_PERICENTER":84.1321,"MEAN_ANOMALY":275.9846,"EPHEMERIS_TYPE":0,"CLASSIFICATION_TYPE":"U","NORAD_CAT_ID":52845,"ELEMENT_SET_NO":999,"REV_AT_EPOCH":18950,"BSTAR":7.0512e-5,"MEAN_MOTION_DOT":8.35e-6,"MEAN_MOTION_DDOT":0},{"OBJECT_NAME":"STARLINK-4212","OBJECT_ID":"2022-062S","EPOCH":"2025-11-21T19:41:07.737216","MEAN_MOTION":15.08844468,"ECCENTRICITY":0.000185,"INCLINATION":53.217,"RA_OF_ASC_NODE":158.3766,"ARG_OF_PERICENTER":89.4302,"MEAN_ANOMALY":270.6903,"EPHEMERIS_TYPE":0,"CLASSIFICATION_TYPE":"U","NORAD_CAT_ID":52846,"ELEMENT_SET_NO":999,"REV_AT_EPOCH":18950,"BSTAR":-2.1461e-5,"MEAN_MOTION_DOT":-6.3e-6,"MEAN_MOTION_DDOT":0},{"OBJECT_NAME":"STARLINK-4206","OBJECT_ID":"2022-062T","EPOCH":"2025-11-21T19:23:51.023616","MEAN_MOTION":15.08842285,"ECCENTRICITY":0.0001474,"INCLINATION":53.2146,"RA_OF_ASC_NODE":158.418,"ARG_OF_PERICENTER":83.1231,"MEAN_ANOMALY":276.9929,"EPHEMERIS_TYPE":0,"CLASSIFICATION_TYPE":"U","NORAD_CAT_ID":52847,"ELEMENT_SET_NO":999,"REV_AT_EPOCH":18950,"BSTAR":4.004e-5,"MEAN_MOTION_DOT":3.49e-6,"MEAN_MOTION_DDOT":0},{"OBJECT_NAME":"STARLINK-4202","OBJECT_ID":"2022-062U","EPOCH":"2025-11-21T23:01:06.917376","MEAN_MOTION":15.08839189,"ECCENTRICITY":0.0001314,"INCLINATION":53.2153,"RA_OF_ASC_NODE":157.7419,"ARG_OF_PERICENTER":100.9707,"MEAN_ANOMALY":259.1433,"EPHEMERIS_TYPE":0,"CLASSIFICATION_TYPE":"U","NORAD_CAT_ID":52848,"ELEMENT_SET_NO":999,"REV_AT_EPOCH":18952,"BSTAR":3.9272e-5,"MEAN_MOTION_DOT":3.37e-6,"MEAN_MOTION_DDOT":0},{"OBJECT_NAME":"STARLINK-4197","OBJECT_ID":"2022-062V","EPOCH":"2025-11-21T22:25:20.741376","MEAN_MOTION":15.08863103,"ECCENTRICITY":0.0001494,"INCLINATION":53.2161,"RA_OF_ASC_NODE":147.8536,"ARG_OF_PERICENTER":108.3516,"MEAN_ANOMALY":251.7638,"EPHEMERIS_TYPE":0,"CLASSIFICATION_TYPE":"U","NORAD_CAT_ID":52849,"ELEMENT_SET_NO":999,"REV_AT_EPOCH":18965,"BSTAR":7.6077e-5,"MEAN_MOTION_DOT":9.24e-6,"MEAN_MOTION_DDOT":0}]
